STARLINK-36636          
1 67611U 26018Y   26044.16668981 -.00102592  00000+0 -53971-3 0  9997
2 67611  97.2744 108.7687 0001546  83.9654  74.7693 15.80874117  3410
STARLINK-36407          
1 67612U 26018Z   26044.16668981 -.00088566  00000+0 -46500-3 0  9992
2 67612  97.2851 108.7730 0001104  86.7528  77.1959 15.80878953  3515
STARLINK-36597          
1 67613U 26018AA  26044.16668981 -.00086065  00000+0 -45201-3 0  9992
2 67613  97.2850 108.7751 0001375  80.3699  89.4084 15.80864062  3417
NEONSAT-1A              
1 67614U 26019A   26043.82474235  .00003161  00000+0  21140-3 0  9993
2 67614  97.4088 168.2982 0012330 258.8055 101.1788 15.07600415  2074
ELECTRON KICK STAGE R/B 
1 67616U 26019C   26043.83629522  .00391517  44709-4  18935-2 0  9998
2 67616  97.4047 169.3473 0181683 212.6127 146.3808 15.62182006  2148
STARLINK-36548          
1 67617U 26020A   26044.16668981  .00102451  00000+0  62524-3 0  9992
2 67617  42.9987 291.3267 0001804 267.8271 122.2647 15.76340818  3442
STARLINK-36601          
1 67618U 26020B   26044.02317881  .00377118  00000+0  17118-2 0  9990
2 67618  42.9974 292.0338 0001568 295.3892  64.6817 15.82075527  2196
STARLINK-36119          
1 67619U 26020C   26044.16668981  .00130294  00000+0  79275-3 0  9991
2 67619  42.9988 291.2956 0002231 271.9029 130.6442 15.76311232  3445
STARLINK-36607          
1 67620U 26020D   26044.08453707  .00385372  00000+0  17445-2 0  9991
2 67620  42.9976 291.6319 0002084 281.2912  78.7725 15.82113316  2201
STARLINK-36615          
1 67621U 26020E   26043.70637050  .00761239  00000+0  32525-2 0  9991
2 67621  42.9976 293.9593 0002250 267.8815  92.1800 15.82391532  2143
STARLINK-36614          
1 67622U 26020F   26044.16668981  .00162625  00000+0  98554-3 0  9999
2 67622  42.9990 291.2337 0002345 276.0377 151.3925 15.76297593  3442
STARLINK-36600          
1 67623U 26020G   26044.16668981  .00164654  00000+0  99727-3 0  9997
2 67623  42.9988 291.2648 0001830 274.2439 140.7400 15.76304933  3449
