CCSDS_OMM_VERS = 2.0
CREATION_DATE  = 
ORIGINATOR     = 

OBJECT_NAME    = STARLINK-36636
OBJECT_ID      = 2026-018Y
CENTER_NAME    = EARTH
REF_FRAME      = TEME
TIME_SYSTEM    = UTC
MEAN_ELEMENT_THEORY = SGP/SGP4

EPOCH          = 2026-02-13T04:00:01.999584
MEAN_MOTION    = 15.80874117
ECCENTRICITY   = .0001546
INCLINATION    = 97.2744
RA_OF_ASC_NODE = 108.7687
ARG_OF_PERICENTER = 83.9654
MEAN_ANOMALY   = 74.7693

EPHEMERIS_TYPE = 0
CLASSIFICATION_TYPE = U
NORAD_CAT_ID   = 67611
ELEMENT_SET_NO = 999
REV_AT_EPOCH   = 341
BSTAR          = -.53971E-3
MEAN_MOTION_DOT = -.102592E-2
MEAN_MOTION_DDOT = 0

CCSDS_OMM_VERS = 2.0
CREATION_DATE  = 
ORIGINATOR     = 

OBJECT_NAME    = STARLINK-36407
OBJECT_ID      = 2026-018Z
CENTER_NAME    = EARTH
REF_FRAME      = TEME
TIME_SYSTEM    = UTC
MEAN_ELEMENT_THEORY = SGP/SGP4

EPOCH          = 2026-02-13T04:00:01.999584
MEAN_MOTION    = 15.80878953
ECCENTRICITY   = .0001104
INCLINATION    = 97.2851
RA_OF_ASC_NODE = 108.7730
ARG_OF_PERICENTER = 86.7528
MEAN_ANOMALY   = 77.1959

EPHEMERIS_TYPE = 0
CLASSIFICATION_TYPE = U
NORAD_CAT_ID   = 67612
ELEMENT_SET_NO = 999
REV_AT_EPOCH   = 351
BSTAR          = -.465E-3
MEAN_MOTION_DOT = -.88566E-3
MEAN_MOTION_DDOT = 0

CCSDS_OMM_VERS = 2.0
CREATION_DATE  = 
ORIGINATOR     = 

OBJECT_NAME    = STARLINK-36597
OBJECT_ID      = 2026-018AA
CENTER_NAME    = EARTH
REF_FRAME      = TEME
TIME_SYSTEM    = UTC
MEAN_ELEMENT_THEORY = SGP/SGP4

EPOCH          = 2026-02-13T04:00:01.999584
MEAN_MOTION    = 15.80864062
ECCENTRICITY   = .0001375
INCLINATION    = 97.2850
RA_OF_ASC_NODE = 108.7751
ARG_OF_PERICENTER = 80.3699
MEAN_ANOMALY   = 89.4084

EPHEMERIS_TYPE = 0
CLASSIFICATION_TYPE = U
NORAD_CAT_ID   = 67613
ELEMENT_SET_NO = 999
REV_AT_EPOCH   = 341
BSTAR          = -.45201E-3
MEAN_MOTION_DOT = -.86065E-3
MEAN_MOTION_DDOT = 0

CCSDS_OMM_VERS = 2.0
CREATION_DATE  = 
ORIGINATOR     = 

OBJECT_NAME    = NEONSAT-1A
OBJECT_ID      = 2026-019A
CENTER_NAME    = EARTH
REF_FRAME      = TEME
TIME_SYSTEM    = UTC
MEAN_ELEMENT_THEORY = SGP/SGP4

EPOCH          = 2026-02-12T19:47:37.739040
MEAN_MOTION    = 15.07600415
ECCENTRICITY   = .001233
INCLINATION    = 97.4088
RA_OF_ASC_NODE = 168.2982
ARG_OF_PERICENTER = 258.8055
MEAN_ANOMALY   = 101.1788

EPHEMERIS_TYPE = 0
CLASSIFICATION_TYPE = U
NORAD_CAT_ID   = 67614
ELEMENT_SET_NO = 999
REV_AT_EPOCH   = 207
BSTAR          = .2114E-3
MEAN_MOTION_DOT = .3161E-4
MEAN_MOTION_DDOT = 0

CCSDS_OMM_VERS = 2.0
CREATION_DATE  = 
ORIGINATOR     = 

OBJECT_NAME    = ELECTRON KICK STAGE R/B
OBJECT_ID      = 2026-019C
CENTER_NAME    = EARTH
REF_FRAME      = TEME
TIME_SYSTEM    = UTC
MEAN_ELEMENT_THEORY = SGP/SGP4

EPOCH          = 2026-02-12T20:04:15.907008
MEAN_MOTION    = 15.62182006
ECCENTRICITY   = .0181683
INCLINATION    = 97.4047
RA_OF_ASC_NODE = 169.3473
ARG_OF_PERICENTER = 212.6127
MEAN_ANOMALY   = 146.3808

EPHEMERIS_TYPE = 0
CLASSIFICATION_TYPE = U
NORAD_CAT_ID   = 67616
ELEMENT_SET_NO = 999
REV_AT_EPOCH   = 214
BSTAR          = .18935E-2
MEAN_MOTION_DOT = .391517E-2
MEAN_MOTION_DDOT = .44709E-4

CCSDS_OMM_VERS = 2.0
CREATION_DATE  = 
ORIGINATOR     = 

OBJECT_NAME    = STARLINK-36548
OBJECT_ID      = 2026-020A
CENTER_NAME    = EARTH
REF_FRAME      = TEME
TIME_SYSTEM    = UTC
MEAN_ELEMENT_THEORY = SGP/SGP4

EPOCH          = 2026-02-13T04:00:01.999584
MEAN_MOTION    = 15.76340818
ECCENTRICITY   = .0001804
INCLINATION    = 42.9987
RA_OF_ASC_NODE = 291.3267
ARG_OF_PERICENTER = 267.8271
MEAN_ANOMALY   = 122.2647

EPHEMERIS_TYPE = 0
CLASSIFICATION_TYPE = U
NORAD_CAT_ID   = 67617
ELEMENT_SET_NO = 999
REV_AT_EPOCH   = 344
BSTAR          = .62524E-3
MEAN_MOTION_DOT = .102451E-2
MEAN_MOTION_DDOT = 0

CCSDS_OMM_VERS = 2.0
CREATION_DATE  = 
ORIGINATOR     = 

OBJECT_NAME    = STARLINK-36601
OBJECT_ID      = 2026-020B
CENTER_NAME    = EARTH
REF_FRAME      = TEME
TIME_SYSTEM    = UTC
MEAN_ELEMENT_THEORY = SGP/SGP4

EPOCH          = 2026-02-13T00:33:22.649184
MEAN_MOTION    = 15.82075527
ECCENTRICITY   = .0001568
INCLINATION    = 42.9974
RA_OF_ASC_NODE = 292.0338
ARG_OF_PERICENTER = 295.3892
MEAN_ANOMALY   = 64.6817

EPHEMERIS_TYPE = 0
CLASSIFICATION_TYPE = U
NORAD_CAT_ID   = 67618
ELEMENT_SET_NO = 999
REV_AT_EPOCH   = 219
BSTAR          = .17118E-2
MEAN_MOTION_DOT = .377118E-2
MEAN_MOTION_DDOT = 0

CCSDS_OMM_VERS = 2.0
CREATION_DATE  = 
ORIGINATOR     = 

OBJECT_NAME    = STARLINK-36119
OBJECT_ID      = 2026-020C
CENTER_NAME    = EARTH
REF_FRAME      = TEME
TIME_SYSTEM    = UTC
MEAN_ELEMENT_THEORY = SGP/SGP4

EPOCH          = 2026-02-13T04:00:01.999584
MEAN_MOTION    = 15.76311232
ECCENTRICITY   = .0002231
INCLINATION    = 42.9988
RA_OF_ASC_NODE = 291.2956
ARG_OF_PERICENTER = 271.9029
MEAN_ANOMALY   = 130.6442

EPHEMERIS_TYPE = 0
CLASSIFICATION_TYPE = U
NORAD_CAT_ID   = 67619
ELEMENT_SET_NO = 999
REV_AT_EPOCH   = 344
BSTAR          = .79275E-3
MEAN_MOTION_DOT = .130294E-2
MEAN_MOTION_DDOT = 0

CCSDS_OMM_VERS = 2.0
CREATION_DATE  = 
ORIGINATOR     = 

OBJECT_NAME    = STARLINK-36607
OBJECT_ID      = 2026-020D
CENTER_NAME    = EARTH
REF_FRAME      = TEME
TIME_SYSTEM    = UTC
MEAN_ELEMENT_THEORY = SGP/SGP4

EPOCH          = 2026-02-13T02:01:44.002848
MEAN_MOTION    = 15.82113316
ECCENTRICITY   = .0002084
INCLINATION    = 42.9976
RA_OF_ASC_NODE = 291.6319
ARG_OF_PERICENTER = 281.2912
MEAN_ANOMALY   = 78.7725

EPHEMERIS_TYPE = 0
CLASSIFICATION_TYPE = U
NORAD_CAT_ID   = 67620
ELEMENT_SET_NO = 999
REV_AT_EPOCH   = 220
BSTAR          = .17445E-2
MEAN_MOTION_DOT = .385372E-2
MEAN_MOTION_DDOT = 0

CCSDS_OMM_VERS = 2.0
CREATION_DATE  = 
ORIGINATOR     = 

OBJECT_NAME    = STARLINK-36615
OBJECT_ID      = 2026-020E
CENTER_NAME    = EARTH
REF_FRAME      = TEME
TIME_SYSTEM    = UTC
MEAN_ELEMENT_THEORY = SGP/SGP4

EPOCH          = 2026-02-12T16:57:10.411200
MEAN_MOTION    = 15.82391532
ECCENTRICITY   = .00022504
INCLINATION    = 42.9976
RA_OF_ASC_NODE = 293.9593
ARG_OF_PERICENTER = 267.8815
MEAN_ANOMALY   = 92.1800

EPHEMERIS_TYPE = 0
CLASSIFICATION_TYPE = U
NORAD_CAT_ID   = 67621
ELEMENT_SET_NO = 999
REV_AT_EPOCH   = 214
BSTAR          = .32525441E-2
MEAN_MOTION_DOT = .761239E-2
MEAN_MOTION_DDOT = 0

CCSDS_OMM_VERS = 2.0
CREATION_DATE  = 
ORIGINATOR     = 

OBJECT_NAME    = STARLINK-36614
OBJECT_ID      = 2026-020F
CENTER_NAME    = EARTH
REF_FRAME      = TEME
TIME_SYSTEM    = UTC
MEAN_ELEMENT_THEORY = SGP/SGP4

EPOCH          = 2026-02-13T04:00:01.999584
MEAN_MOTION    = 15.76297593
ECCENTRICITY   = .0002345
INCLINATION    = 42.9990
RA_OF_ASC_NODE = 291.2337
ARG_OF_PERICENTER = 276.0377
MEAN_ANOMALY   = 151.3925

EPHEMERIS_TYPE = 0
CLASSIFICATION_TYPE = U
NORAD_CAT_ID   = 67622
ELEMENT_SET_NO = 999
REV_AT_EPOCH   = 344
BSTAR          = .98554E-3
MEAN_MOTION_DOT = .162625E-2
MEAN_MOTION_DDOT = 0

CCSDS_OMM_VERS = 2.0
CREATION_DATE  = 
ORIGINATOR     = 

OBJECT_NAME    = STARLINK-36600
OBJECT_ID      = 2026-020G
CENTER_NAME    = EARTH
REF_FRAME      = TEME
TIME_SYSTEM    = UTC
MEAN_ELEMENT_THEORY = SGP/SGP4

EPOCH          = 2026-02-13T04:00:01.999584
MEAN_MOTION    = 15.76304933
ECCENTRICITY   = .000183
INCLINATION    = 42.9988
RA_OF_ASC_NODE = 291.2648
ARG_OF_PERICENTER = 274.2439
MEAN_ANOMALY   = 140.7400

EPHEMERIS_TYPE = 0
CLASSIFICATION_TYPE = U
NORAD_CAT_ID   = 67623
ELEMENT_SET_NO = 999
REV_AT_EPOCH   = 344
BSTAR          = .99727E-3
MEAN_MOTION_DOT = .164654E-2
MEAN_MOTION_DDOT = 0

